{
  "type": "FeatureCollection",
  "features": [
    {
      "type": "Feature",
      "properties": {
        "norad_id": 34492,
        "name": "IRIDIUM 33 DEB",
        "group": "iridium-33-debris",
        "lat": -2.896801209723824,
        "lon": -24.76248737351386,
        "alt_km": 859.9596351112696,
        "timestamp": "2025-12-10T18:57:00.450360+00:00",
        "meta_object_name": "IRIDIUM 33 DEB",
        "meta_object_id": "1997-051GH",
        "meta_epoch": "2025-12-10T11:09:51.703200",
        "meta_mean_motion": 14.25634536,
        "meta_eccentricity": 0.0189198,
        "meta_inclination": 86.473,
        "meta_ra_of_asc_node": 335.5473,
        "meta_arg_of_pericenter": 245.5701,
        "meta_mean_anomaly": 245.7255,
        "meta_ephemeris_type": 0,
        "meta_classification_type": "U",
        "meta_norad_cat_id": 34492,
        "meta_element_set_no": 999,
        "meta_rev_at_epoch": 85026,
        "meta_bstar": 0.0074682,
        "meta_mean_motion_dot": 0.00021406,
        "meta_mean_motion_ddot": 0,
        "tle_line1": "1 34492U 97051GH  25344.46518175  .00021406  00000+0  74682-2 0  9990",
        "tle_line2": "2 34492  86.4730 335.5473 0189198 245.5701 245.7255 14.25634536850262"
      },
      "geometry": {
        "type": "Point",
        "coordinates": [
          -24.76248737351386,
          -2.896801209723824
        ]
      }
    },
    {
      "type": "Feature",
      "properties": {
        "norad_id": 34497,
        "name": "IRIDIUM 33 DEB",
        "group": "iridium-33-debris",
        "lat": -40.45964781703046,
        "lon": -123.58262829400107,
        "alt_km": 839.5577257691202,
        "timestamp": "2025-12-10T18:57:00.450370+00:00",
        "meta_object_name": "IRIDIUM 33 DEB",
        "meta_object_id": "1997-051GN",
        "meta_epoch": "2025-12-10T04:35:23.086752",
        "meta_mean_motion": 14.2744131,
        "meta_eccentricity": 0.00790645,
        "meta_inclination": 86.2779,
        "meta_ra_of_asc_node": 53.4903,
        "meta_arg_of_pericenter": 347.8917,
        "meta_mean_anomaly": 40.4515,
        "meta_ephemeris_type": 0,
        "meta_classification_type": "U",
        "meta_norad_cat_id": 34497,
        "meta_element_set_no": 999,
        "meta_rev_at_epoch": 86847,
        "meta_bstar": 0.00082191095,
        "meta_mean_motion_dot": 2.102e-05,
        "meta_mean_motion_ddot": 0,
        "tle_line1": "1 34497U 97051GN  25344.19123943  .00002102  00000+0  82191-3 0  9997",
        "tle_line2": "2 34497  86.2779  53.4903 0079064 347.8917  40.4515 14.27441310868476"
      },
      "geometry": {
        "type": "Point",
        "coordinates": [
          -123.58262829400107,
          -40.45964781703046
        ]
      }
    },
    {
      "type": "Feature",
      "properties": {
        "norad_id": 34508,
        "name": "IRIDIUM 33 DEB",
        "group": "iridium-33-debris",
        "lat": -56.88074925011182,
        "lon": 97.88560374360605,
        "alt_km": 797.0279293623689,
        "timestamp": "2025-12-10T18:57:00.450380+00:00",
        "meta_object_name": "IRIDIUM 33 DEB",
        "meta_object_id": "1997-051GZ",
        "meta_epoch": "2025-12-10T09:12:01.319040",
        "meta_mean_motion": 14.38393247,
        "meta_eccentricity": 0.0066038,
        "meta_inclination": 86.3701,
        "meta_ra_of_asc_node": 103.6419,
        "meta_arg_of_pericenter": 180.4805,
        "meta_mean_anomaly": 179.6341,
        "meta_ephemeris_type": 0,
        "meta_classification_type": "U",
        "meta_norad_cat_id": 34508,
        "meta_element_set_no": 999,
        "meta_rev_at_epoch": 87275,
        "meta_bstar": 0.0023927,
        "meta_mean_motion_dot": 7.501e-05,
        "meta_mean_motion_ddot": 0,
        "tle_line1": "1 34508U 97051GZ  25344.38334860  .00007501  00000+0  23927-2 0  9992",
        "tle_line2": "2 34508  86.3701 103.6419 0066038 180.4805 179.6341 14.38393247872754"
      },
      "geometry": {
        "type": "Point",
        "coordinates": [
          97.88560374360605,
          -56.88074925011182
        ]
      }
    },
    {
      "type": "Feature",
      "properties": {
        "norad_id": 34521,
        "name": "IRIDIUM 33 DEB",
        "group": "iridium-33-debris",
        "lat": -54.57895892958887,
        "lon": 26.299884777811442,
        "alt_km": 689.3138709332961,
        "timestamp": "2025-12-10T18:57:00.450390+00:00",
        "meta_object_name": "IRIDIUM 33 DEB",
        "meta_object_id": "1997-051HN",
        "meta_epoch": "2025-12-10T09:21:10.708992",
        "meta_mean_motion": 14.63333363,
        "meta_eccentricity": 0.000131,
        "meta_inclination": 86.3801,
        "meta_ra_of_asc_node": 31.5825,
        "meta_arg_of_pericenter": 230.6047,
        "meta_mean_anomaly": 129.5049,
        "meta_ephemeris_type": 0,
        "meta_classification_type": "U",
        "meta_norad_cat_id": 34521,
        "meta_element_set_no": 999,
        "meta_rev_at_epoch": 88438,
        "meta_bstar": 0.0013317,
        "meta_mean_motion_dot": 6.896e-05,
        "meta_mean_motion_ddot": 0,
        "tle_line1": "1 34521U 97051HN  25344.38970728  .00006896  00000+0  13317-2 0  9994",
        "tle_line2": "2 34521  86.3801  31.5825 0001310 230.6047 129.5049 14.63333363884380"
      },
      "geometry": {
        "type": "Point",
        "coordinates": [
          26.299884777811442,
          -54.57895892958887
        ]
      }
    },
    {
      "type": "Feature",
      "properties": {
        "norad_id": 34525,
        "name": "IRIDIUM 33 DEB",
        "group": "iridium-33-debris",
        "lat": -85.72718935305471,
        "lon": -74.2193460943524,
        "alt_km": 761.0834896940614,
        "timestamp": "2025-12-10T18:57:00.450400+00:00",
        "meta_object_name": "IRIDIUM 33 DEB",
        "meta_object_id": "1997-051HS",
        "meta_epoch": "2025-12-10T11:07:21.115776",
        "meta_mean_motion": 14.42897128,
        "meta_eccentricity": 0.0006715,
        "meta_inclination": 86.3728,
        "meta_ra_of_asc_node": 47.8152,
        "meta_arg_of_pericenter": 100.6027,
        "meta_mean_anomaly": 274.0369,
        "meta_ephemeris_type": 0,
        "meta_classification_type": "U",
        "meta_norad_cat_id": 34525,
        "meta_element_set_no": 999,
        "meta_rev_at_epoch": 88055,
        "meta_bstar": 0.00056459,
        "meta_mean_motion_dot": 1.905e-05,
        "meta_mean_motion_ddot": 0,
        "tle_line1": "1 34525U 97051HS  25344.46343884  .00001905  00000+0  56459-3 0  9995",
        "tle_line2": "2 34525  86.3728  47.8152 0006715 100.6027 274.0369 14.42897128880550"
      },
      "geometry": {
        "type": "Point",
        "coordinates": [
          -74.2193460943524,
          -85.72718935305471
        ]
      }
    },
    {
      "type": "Feature",
      "properties": {
        "norad_id": 34529,
        "name": "IRIDIUM 33 DEB",
        "group": "iridium-33-debris",
        "lat": 1.3233412880195234,
        "lon": -143.8409139069896,
        "alt_km": 756.1562612716925,
        "timestamp": "2025-12-10T18:57:00.450410+00:00",
        "meta_object_name": "IRIDIUM 33 DEB",
        "meta_object_id": "1997-051HW",
        "meta_epoch": "2025-12-10T09:47:19.467744",
        "meta_mean_motion": 14.40613002,
        "meta_eccentricity": 0.0004504,
        "meta_inclination": 86.3643,
        "meta_ra_of_asc_node": 36.4059,
        "meta_arg_of_pericenter": 184.9511,
        "meta_mean_anomaly": 175.1644,
        "meta_ephemeris_type": 0,
        "meta_classification_type": "U",
        "meta_norad_cat_id": 34529,
        "meta_element_set_no": 999,
        "meta_rev_at_epoch": 88108,
        "meta_bstar": 0.000181,
        "meta_mean_motion_dot": 5.97e-06,
        "meta_mean_motion_ddot": 0,
        "tle_line1": "1 34529U 97051HW  25344.40786421  .00000597  00000+0  18100-3 0  9998",
        "tle_line2": "2 34529  86.3643  36.4059 0004504 184.9511 175.1644 14.40613002881088"
      },
      "geometry": {
        "type": "Point",
        "coordinates": [
          -143.8409139069896,
          1.3233412880195234
        ]
      }
    },
    {
      "type": "Feature",
      "properties": {
        "norad_id": 34538,
        "name": "IRIDIUM 33 DEB",
        "group": "iridium-33-debris",
        "lat": 1.491521676657699,
        "lon": 6.507295734076886,
        "alt_km": 731.6282777632414,
        "timestamp": "2025-12-10T18:57:00.450420+00:00",
        "meta_object_name": "IRIDIUM 33 DEB",
        "meta_object_id": "1997-051JF",
        "meta_epoch": "2025-12-10T02:34:36.380064",
        "meta_mean_motion": 14.42622589,
        "meta_eccentricity": 0.00330991,
        "meta_inclination": 86.2772,
        "meta_ra_of_asc_node": 6.7088,
        "meta_arg_of_pericenter": 336.9894,
        "meta_mean_anomaly": 83.6155,
        "meta_ephemeris_type": 0,
        "meta_classification_type": "U",
        "meta_norad_cat_id": 34538,
        "meta_element_set_no": 999,
        "meta_rev_at_epoch": 87718,
        "meta_bstar": 0.001246863,
        "meta_mean_motion_dot": 4.187e-05,
        "meta_mean_motion_ddot": 0,
        "tle_line1": "1 34538U 97051JF  25344.10736551  .00004187  00000+0  12469-2 0  9994",
        "tle_line2": "2 34538  86.2772   6.7088 0033099 336.9894  83.6155 14.42622589877184"
      },
      "geometry": {
        "type": "Point",
        "coordinates": [
          6.507295734076886,
          1.491521676657699
        ]
      }
    }
  ]
}